NORAD_CAT_ID,OBJECT_NAME,OBJECT_TYPE,EPOCH,MEAN_MOTION,ECCENTRICITY,INCLINATION,RA_OF_ASC_NODE,ARG_OF_PERICENTER,MEAN_ANOMALY,BSTAR,MEAN_MOTION_DOT,MEAN_MOTION_DDOT,TLE_LINE0,TLE_LINE1,TLE_LINE2,SEMIMAJOR_AXIS,PERIOD,APOGEE,PERIGEE,DECAYED
53535.0,STARLINK-4138,PAYLOAD,2023-09-11 14:08:47,15.08841747,0.0001335,53.2169,199.7177,89.869,270.2455,6.0753e-05,6.79e-06,0.0,0 STARLINK-4138,1 53535U 22101J   23254.58944282  .00000679  00000-0  60753-4 0  9992,2 53535  53.2169 199.7177 0001335  89.8690 270.2455 15.08841747 58779,6917.875,95.437,540.664,538.817,0.0
53535.0,STARLINK-4138,PAYLOAD,2023-09-12 06:02:38,15.08848773,0.0001295,53.2168,196.7435,90.2659,269.8482,5.8787e-05,6.48e-06,0.0,0 STARLINK-4138,1 53535U 22101J   23255.25183786  .00000648  00000-0  58787-4 0  9991,2 53535  53.2168 196.7435 0001295  90.2659 269.8482 15.08848773 58879,6917.854,95.437,540.614,538.823,0.0
53535.0,STARLINK-4138,PAYLOAD,2023-09-13 02:42:39,15.08848984,0.0001295,53.2169,192.8781,90.6572,269.4569,0.00010324,1.356e-05,0.0,0 STARLINK-4138,1 53535U 22101J   23256.11295670  .00001356  00000-0  10324-3 0  9994,2 53535  53.2169 192.8781 0001295  90.6572 269.4569 15.08848984 59001,6917.853,95.437,540.614,538.822,0.0
53535.0,STARLINK-4138,PAYLOAD,2023-09-14 02:33:26,15.08841554,0.0001347,53.2181,188.4158,99.3921,260.7223,8.8491e-05,1.121e-05,0.0,0 STARLINK-4138,1 53535U 22101J   23257.10656054  .00001121  00000-0  88491-4 0  9992,2 53535  53.2181 188.4158 0001347  99.3921 260.7223 15.08841554 59159,6917.876,95.437,540.672,538.809,0.0
53535.0,STARLINK-4138,PAYLOAD,2023-09-14 04:08:49,15.08846696,0.0001172,53.2174,188.1193,99.4715,260.641,0.00012911,1.768e-05,0.0,0 STARLINK-4138,1 53535U 22101J   23257.17279644  .00001768  00000-0  12911-3 0  9995,2 53535  53.2174 188.1193 0001172  99.4715 260.6410 15.08846696 59165,6917.86,95.437,540.536,538.914,0.0
53535.0,STARLINK-4138,PAYLOAD,2023-09-15 02:24:14,15.0883662,0.0001241,53.2178,183.9601,96.4042,263.7091,-3.9943e-05,-9.23e-06,0.0,0 STARLINK-4138,1 53535U 22101J   23258.10017071 -.00000923  00000-0 -39943-4 0  9992,2 53535  53.2178 183.9601 0001241  96.4042 263.7091 15.08836620 59304,6917.891,95.438,540.614,538.897,0.0
53535.0,STARLINK-4138,PAYLOAD,2023-09-15 03:59:37,15.08839306,0.0001282,53.2175,183.6613,92.4759,267.638,-1.9575e-05,-5.99e-06,0.0,0 STARLINK-4138,1 53535U 22101J   23258.16640862 -.00000599  00000-0 -19575-4 0  9996,2 53535  53.2175 183.6613 0001282  92.4759 267.6380 15.08839306 59316,6917.883,95.438,540.634,538.861,0.0
53535.0,STARLINK-4138,PAYLOAD,2023-09-16 00:39:35,15.08875402,0.0001465,53.2178,179.797,51.4826,308.6298,0.00029961,4.488e-05,0.0,0 STARLINK-4138,1 53535U 22101J   23259.02749337  .00004488  00000-0  29961-3 0  9997,2 53535  53.2178 179.7970 0001465  51.4826 308.6298 15.08875402 59449,6917.772,95.435,540.651,538.624,0.0
53535.0,STARLINK-4138,PAYLOAD,2023-09-16 03:50:24,15.08835469,0.0001265,53.218,179.2029,95.3999,264.7138,-2.5257e-05,-6.9e-06,0.0,0 STARLINK-4138,1 53535U 22101J   23259.16000445 -.00000690  00000-0 -25257-4 0  9990,2 53535  53.2180 179.2029 0001265  95.3999 264.7138 15.08835469 59464,6917.894,95.438,540.634,538.884,0.0
53535.0,STARLINK-4138,PAYLOAD,2023-09-17 03:41:11,15.08833121,0.0001322,53.2179,174.7394,81.6605,278.4537,0.00010936,1.453e-05,0.0,0 STARLINK-4138,1 53535U 22101J   23260.15360877  .00001453  00000-0  10936-3 0  9992,2 53535  53.2179 174.7394 0001322  81.6605 278.4537 15.08833121 59618,6917.901,95.438,540.681,538.852,0.0
53535.0,STARLINK-4138,PAYLOAD,2023-09-18 00:21:11,15.08856626,0.0001695,53.2176,170.8738,58.141,301.9746,-0.00016176,-2.863e-05,0.0,0 STARLINK-4138,1 53535U 22101J   23261.01471880 -.00002863  00000-0 -16176-3 0  9995,2 53535  53.2176 170.8738 0001695  58.1410 301.9746 15.08856626 59743,6917.83,95.437,540.867,538.522,0.0
53535.0,STARLINK-4138,PAYLOAD,2023-09-19 03:22:44,15.08849983,0.0001358,53.2173,165.8182,97.2517,262.8629,0.00016542,2.346e-05,0.0,0 STARLINK-4138,1 53535U 22101J   23262.14079560  .00002346  00000-0  16542-3 0  9990,2 53535  53.2173 165.8182 0001358  97.2517 262.8629 15.08849983 59917,6917.85,95.437,540.654,538.775,0.0
53535.0,STARLINK-4138,PAYLOAD,2023-09-20 03:13:31,15.08851547,0.0001508,53.2179,161.3563,100.4998,259.6164,0.00015229,2.137e-05,0.0,0 STARLINK-4138,1 53535U 22101J   23263.13439144  .00002137  00000-0  15229-3 0  9997,2 53535  53.2179 161.3563 0001508 100.4998 259.6164 15.08851547 60069,6917.845,95.437,540.753,538.667,0.0
53535.0,STARLINK-4138,PAYLOAD,2023-09-20 22:18:11,15.0882517,0.000152,53.2167,157.787,83.1421,276.9744,-0.00011983,-2.194e-05,0.0,0 STARLINK-4138,1 53535U 22101J   23263.92930254 -.00002194  00000-0 -11983-3 0  9990,2 53535  53.2167 157.7870 0001520  83.1421 276.9744 15.08825170 60180,6917.926,95.438,540.842,538.739,0.0
53535.0,STARLINK-4138,PAYLOAD,2023-09-21 01:28:58,15.08824588,0.0001521,53.2169,157.1931,86.4116,273.705,-0.00013114,-2.374e-05,0.0,0 STARLINK-4138,1 53535U 22101J   23264.06178417 -.00002374  00000-0 -13114-3 0  9999,2 53535  53.2169 157.1931 0001521  86.4116 273.7050 15.08824588 60202,6917.927,95.439,540.845,538.74,0.0
53535.0,STARLINK-4138,PAYLOAD,2023-09-21 03:04:21,15.08827784,0.0001483,53.2173,156.8985,92.155,267.9611,-0.00018757,-3.271e-05,0.0,0 STARLINK-4138,1 53535U 22101J   23264.12802379 -.00003271  00000-0 -18757-3 0  9992,2 53535  53.2173 156.8985 0001483  92.1550 267.9611 15.08827784 60215,6917.918,95.438,540.809,538.757,0.0
53535.0,STARLINK-4138,PAYLOAD,2023-09-21 22:08:58,15.08839517,0.000159,53.2174,153.3316,91.1475,268.97,-4.08e-05,-9.37e-06,0.0,0 STARLINK-4138,1 53535U 22101J   23264.92289724 -.00000937  00000-0 -40800-4 0  9994,2 53535  53.2174 153.3316 0001590  91.1475 268.9700 15.08839517 60330,6917.882,95.438,540.847,538.647,0.0
53535.0,STARLINK-4138,PAYLOAD,2023-09-22 01:19:44,15.08848094,0.0001523,53.2174,152.7365,91.2665,268.8502,3.9521e-05,3.41e-06,0.0,0 STARLINK-4138,1 53535U 22101J   23265.05537046  .00000341  00000-0  39521-4 0  9997,2 53535  53.2174 152.7365 0001523  91.2665 268.8502 15.08848094 60356,6917.856,95.437,540.774,538.667,0.0
53535.0,STARLINK-4138,PAYLOAD,2023-09-22 17:13:36,15.08831542,0.0001734,53.2177,149.7635,89.9746,270.1445,0.00027395,4.074e-05,0.0,0 STARLINK-4138,1 53535U 22101J   23265.71777991  .00004074  00000-0  27395-3 0  9997,2 53535  53.2177 149.7635 0001734  89.9746 270.1445 15.08831542 60456,6917.906,95.438,540.971,538.572,0.0
53535.0,STARLINK-4138,PAYLOAD,2023-09-22 21:59:45,15.08837938,0.0001839,53.2182,148.8735,96.3958,263.7243,0.00032849,4.943e-05,0.0,0 STARLINK-4138,1 53535U 22101J   23265.91649533  .00004943  00000-0  32849-3 0  9994,2 53535  53.2182 148.8735 0001839  96.3958 263.7243 15.08837938 60488,6917.887,95.438,541.024,538.479,0.0
53535.0,STARLINK-4138,PAYLOAD,2023-09-22 23:35:08,15.08842118,0.000172,53.2175,148.5749,93.2984,266.8205,0.00033745,5.087e-05,0.0,0 STARLINK-4138,1 53535U 22101J   23265.98273314  .00005087  00000-0  33745-3 0  9997,2 53535  53.2175 148.5749 0001720  93.2984 266.8205 15.08842118 60495,6917.874,95.437,540.929,538.549,0.0
53535.0,STARLINK-4138,PAYLOAD,2023-09-24 01:01:18,15.08844011,0.0001521,53.2173,143.8165,87.1728,272.9439,2.3178e-05,8.1e-07,0.0,0 STARLINK-4138,1 53535U 22101J   23267.04258028  .00000081  00000-0  23178-4 0  9990,2 53535  53.2173 143.8165 0001521  87.1728 272.9439 15.08844011 60659,6917.868,95.437,540.785,538.681,0.0
53535.0,STARLINK-4138,PAYLOAD,2023-09-24 21:41:19,15.08846021,0.0001538,53.2175,139.9491,88.9421,271.1748,-1.9366e-05,-5.96e-06,0.0,0 STARLINK-4138,1 53535U 22101J   23267.90369886 -.00000596  00000-0 -19366-4 0  9997,2 53535  53.2175 139.9491 0001538  88.9421 271.1748 15.08846021 60787,6917.862,95.437,540.791,538.663,0.0
53535.0,STARLINK-4138,PAYLOAD,2023-09-25 00:52:07,15.08815835,0.0001615,53.2172,139.3573,94.2125,265.9052,-0.00026942,-4.57e-05,0.0,0 STARLINK-4138,1 53535U 22101J   23268.03620315 -.00004570  00000-0 -26942-3 0  9992,2 53535  53.2172 139.3573 0001615  94.2125 265.9052 15.08815835 60807,6917.954,95.439,540.937,538.702,0.0
53535.0,STARLINK-4138,PAYLOAD,2023-09-25 08:49:03,15.08816182,0.0001431,53.2164,137.8704,100.3548,259.7606,-0.0001255,-2.283e-05,0.0,0 STARLINK-4138,1 53535U 22101J   23268.36740299 -.00002283  00000-0 -12550-3 0  9991,2 53535  53.2164 137.8704 0001431 100.3548 259.7606 15.08816182 60858,6917.953,95.439,540.808,538.828,0.0
53535.0,STARLINK-4138,PAYLOAD,2023-09-25 21:32:08,15.08830262,0.0001443,53.2179,135.4885,94.2563,265.8594,2.2009e-05,6.2e-07,0.0,0 STARLINK-4138,1 53535U 22101J   23268.89731523  .00000062  00000-0  22009-4 0  9991,2 53535  53.2179 135.4885 0001443  94.2563 265.8594 15.08830262 60937,6917.91,95.438,540.773,538.777,0.0
53535.0,STARLINK-4138,PAYLOAD,2023-09-26 18:12:07,15.08850624,0.0001391,53.2183,131.6216,97.7092,262.4058,0.00011097,1.479e-05,0.0,0 STARLINK-4138,1 53535U 22101J   23269.75842242  .00001479  00000-0  11097-3 0  9995,2 53535  53.2183 131.6216 0001391  97.7092 262.4058 15.08850624 61062,6917.848,95.437,540.675,538.751,0.0
53535.0,STARLINK-4138,PAYLOAD,2023-09-26 21:22:54,15.08847144,0.0001302,53.2162,131.0314,78.3794,281.7344,0.00057473,8.872e-05,0.0,0 STARLINK-4138,1 53535U 22101J   23269.89091058  .00008872  00000-0  57473-3 0  9993,2 53535  53.2162 131.0314 0001302  78.3794 281.7344 15.08847144 61085,6917.859,95.437,540.624,538.823,0.0
53535.0,STARLINK-4138,PAYLOAD,2023-09-27 11:41:22,15.08845707,0.0001575,53.2158,128.3523,129.6953,230.4178,0.00034528,5.212e-05,0.0,0 STARLINK-4138,1 53535U 22101J   23270.48706992  .00005212  00000-0  34528-3 0  9991,2 53535  53.2158 128.3523 0001575 129.6953 230.4178 15.08845707 61179,6917.863,95.437,540.818,538.638,0.0
53535.0,STARLINK-4138,PAYLOAD,2023-09-27 18:02:55,15.08836573,0.0001118,53.2162,127.1618,97.4794,262.6326,4.3612e-05,4.06e-06,0.0,0 STARLINK-4138,1 53535U 22101J   23270.75203416  .00000406  00000-0  43612-4 0  9999,2 53535  53.2162 127.1618 0001118  97.4794 262.6326 15.08836573 61212,6917.891,95.438,540.529,538.982,0.0
